CCSDS_OEM_VERS = 2.0
CREATION_DATE  = 2025-09-12T20:39:48.731
ORIGINATOR     = Python_HGV

META_START
OBJECT_NAME          = HGV_00002
OBJECT_ID            = 0000-000A
CENTER_NAME          = Earth
REF_FRAME            = ICRF
TIME_SYSTEM          = UTC
INTERPOLATION        = LAGRANGE
INTERPOLATION_DEGREE = 5
START_TIME           = 2025-07-22T00:00:00.000
STOP_TIME            = 2025-07-22T00:22:30.000
META_STOP

2025-07-22T00:10:16.000  2.451477e+03  2.456786e+03  5.401640e+03  1.483304e+00 -3.886364e+00  9.262738e-01
2025-07-22T00:10:17.000  2.452959e+03  2.452899e+03  5.402562e+03  1.481217e+00 -3.888558e+00  9.183567e-01
2025-07-22T00:10:18.000  2.454439e+03  2.449009e+03  5.403477e+03  1.479172e+00 -3.890713e+00  9.104356e-01
2025-07-22T00:10:19.000  2.455918e+03  2.445117e+03  5.404383e+03  1.477173e+00 -3.892827e+00  9.025102e-01
2025-07-22T00:10:20.000  2.457394e+03  2.441223e+03  5.405282e+03  1.475222e+00 -3.894897e+00  8.945806e-01
2025-07-22T00:10:21.000  2.458868e+03  2.437328e+03  5.406172e+03  1.473322e+00 -3.896922e+00  8.866465e-01
2025-07-22T00:10:22.000  2.460340e+03  2.433430e+03  5.407055e+03  1.471476e+00 -3.898899e+00  8.787078e-01
2025-07-22T00:10:23.000  2.461811e+03  2.429530e+03  5.407930e+03  1.469688e+00 -3.900825e+00  8.707643e-01
2025-07-22T00:10:24.000  2.463280e+03  2.425628e+03  5.408797e+03  1.467961e+00 -3.902697e+00  8.628158e-01
2025-07-22T00:10:25.000  2.464747e+03  2.421724e+03  5.409656e+03  1.466298e+00 -3.904514e+00  8.548622e-01
2025-07-22T00:10:26.000  2.466212e+03  2.417819e+03  5.410506e+03  1.464703e+00 -3.906271e+00  8.469033e-01
2025-07-22T00:10:27.000  2.467676e+03  2.413912e+03  5.411349e+03  1.463180e+00 -3.907966e+00  8.389389e-01
2025-07-22T00:10:28.000  2.469139e+03  2.410003e+03  5.412184e+03  1.461734e+00 -3.909596e+00  8.309688e-01
2025-07-22T00:10:29.000  2.470600e+03  2.406093e+03  5.413011e+03  1.460369e+00 -3.911156e+00  8.229928e-01
2025-07-22T00:10:30.000  2.472060e+03  2.402181e+03  5.413830e+03  1.459089e+00 -3.912644e+00  8.150107e-01
2025-07-22T00:10:31.000  2.473518e+03  2.398267e+03  5.414641e+03  1.457900e+00 -3.914055e+00  8.070223e-01
2025-07-22T00:10:32.000  2.474975e+03  2.394353e+03  5.415444e+03  1.456807e+00 -3.915386e+00  7.990274e-01
2025-07-22T00:10:33.000  2.476432e+03  2.390437e+03  5.416239e+03  1.455814e+00 -3.916631e+00  7.910256e-01
2025-07-22T00:10:34.000  2.477887e+03  2.386519e+03  5.417026e+03  1.454929e+00 -3.917787e+00  7.830169e-01
2025-07-22T00:10:35.000  2.479341e+03  2.382601e+03  5.417805e+03  1.454157e+00 -3.918848e+00  7.750008e-01
2025-07-22T00:10:36.000  2.480795e+03  2.378682e+03  5.418576e+03  1.453504e+00 -3.919809e+00  7.669772e-01
2025-07-22T00:10:37.000  2.482248e+03  2.374761e+03  5.419339e+03  1.452977e+00 -3.920666e+00  7.589458e-01
2025-07-22T00:10:38.000  2.483701e+03  2.370840e+03  5.420094e+03  1.452584e+00 -3.921411e+00  7.509062e-01
2025-07-22T00:10:39.000  2.485154e+03  2.366919e+03  5.420841e+03  1.452331e+00 -3.922040e+00  7.428581e-01
2025-07-22T00:10:40.000  2.486606e+03  2.362996e+03  5.421580e+03  1.452227e+00 -3.922545e+00  7.348013e-01
2025-07-22T00:10:41.000  2.488058e+03  2.359073e+03  5.422311e+03  1.452281e+00 -3.922920e+00  7.267354e-01
2025-07-22T00:10:42.000  2.489510e+03  2.355150e+03  5.423033e+03  1.452500e+00 -3.923158e+00  7.186600e-01
2025-07-22T00:10:43.000  2.490963e+03  2.351227e+03  5.423748e+03  1.452895e+00 -3.923251e+00  7.105747e-01
2025-07-22T00:10:44.000  2.492416e+03  2.347304e+03  5.424455e+03  1.453474e+00 -3.923190e+00  7.024792e-01
2025-07-22T00:10:45.000  2.493870e+03  2.343381e+03  5.425153e+03  1.454249e+00 -3.922968e+00  6.943730e-01
2025-07-22T00:10:46.000  2.495325e+03  2.339458e+03  5.425843e+03  1.455230e+00 -3.922576e+00  6.862556e-01
2025-07-22T00:10:47.000  2.496781e+03  2.335536e+03  5.426526e+03  1.456428e+00 -3.922003e+00  6.781267e-01
2025-07-22T00:10:48.000  2.498238e+03  2.331614e+03  5.427200e+03  1.457854e+00 -3.921239e+00  6.699856e-01
2025-07-22T00:10:49.000  2.499696e+03  2.327693e+03  5.427866e+03  1.459523e+00 -3.920275e+00  6.618319e-01
2025-07-22T00:10:50.000  2.501157e+03  2.323773e+03  5.428523e+03  1.461445e+00 -3.919098e+00  6.536651e-01
2025-07-22T00:10:51.000  2.502619e+03  2.319855e+03  5.429173e+03  1.463635e+00 -3.917698e+00  6.454845e-01
2025-07-22T00:10:52.000  2.504084e+03  2.315938e+03  5.429814e+03  1.466108e+00 -3.916060e+00  6.372895e-01
2025-07-22T00:10:53.000  2.505551e+03  2.312023e+03  5.430447e+03  1.468877e+00 -3.914173e+00  6.290794e-01
2025-07-22T00:10:54.000  2.507022e+03  2.308110e+03  5.431072e+03  1.471957e+00 -3.912023e+00  6.208536e-01
2025-07-22T00:10:55.000  2.508495e+03  2.304199e+03  5.431689e+03  1.475366e+00 -3.909594e+00  6.126113e-01
2025-07-22T00:10:56.000  2.509972e+03  2.300290e+03  5.432298e+03  1.479118e+00 -3.906871e+00  6.043518e-01
2025-07-22T00:10:57.000  2.511453e+03  2.296385e+03  5.432898e+03  1.483232e+00 -3.903839e+00  5.960742e-01
2025-07-22T00:10:58.000  2.512939e+03  2.292483e+03  5.433490e+03  1.487724e+00 -3.900481e+00  5.877777e-01
2025-07-22T00:10:59.000  2.514429e+03  2.288584e+03  5.434073e+03  1.492612e+00 -3.896778e+00  5.794613e-01
2025-07-22T00:11:00.000  2.515924e+03  2.284689e+03  5.434649e+03  1.497914e+00 -3.892714e+00  5.711242e-01
2025-07-22T00:11:01.000  2.517425e+03  2.280799e+03  5.435216e+03  1.503649e+00 -3.888268e+00  5.627651e-01
2025-07-22T00:11:02.000  2.518931e+03  2.276913e+03  5.435774e+03  1.509835e+00 -3.883420e+00  5.543832e-01
2025-07-22T00:11:03.000  2.520444e+03  2.273032e+03  5.436324e+03  1.516492e+00 -3.878151e+00  5.459772e-01
2025-07-22T00:11:04.000  2.521964e+03  2.269156e+03  5.436866e+03  1.523638e+00 -3.872440e+00  5.375460e-01
2025-07-22T00:11:05.000  2.523492e+03  2.265287e+03  5.437399e+03  1.531293e+00 -3.866263e+00  5.290884e-01
2025-07-22T00:11:06.000  2.525027e+03  2.261424e+03  5.437924e+03  1.539474e+00 -3.859599e+00  5.206030e-01
2025-07-22T00:11:07.000  2.526571e+03  2.257568e+03  5.438441e+03  1.548201e+00 -3.852424e+00  5.120885e-01
2025-07-22T00:11:08.000  2.528123e+03  2.253719e+03  5.438949e+03  1.557490e+00 -3.844716e+00  5.035436e-01
2025-07-22T00:11:09.000  2.529686e+03  2.249878e+03  5.439448e+03  1.567358e+00 -3.836450e+00  4.949668e-01
2025-07-22T00:11:10.000  2.531258e+03  2.246046e+03  5.439938e+03  1.577822e+00 -3.827603e+00  4.863567e-01
2025-07-22T00:11:11.000  2.532841e+03  2.242223e+03  5.440420e+03  1.588896e+00 -3.818150e+00  4.777117e-01
2025-07-22T00:11:12.000  2.534436e+03  2.238410e+03  5.440894e+03  1.600592e+00 -3.808068e+00  4.690303e-01
2025-07-22T00:11:13.000  2.536042e+03  2.234607e+03  5.441359e+03  1.612923e+00 -3.797332e+00  4.603111e-01
2025-07-22T00:11:14.000  2.537662e+03  2.230815e+03  5.441814e+03  1.625897e+00 -3.785920e+00  4.515525e-01
2025-07-22T00:11:15.000  2.539294e+03  2.227035e+03  5.442262e+03  1.639522e+00 -3.773810e+00  4.427531e-01
2025-07-22T00:11:16.000  2.540941e+03  2.223267e+03  5.442700e+03  1.653802e+00 -3.760978e+00  4.339114e-01
2025-07-22T00:11:17.000  2.542602e+03  2.219513e+03  5.443129e+03  1.668738e+00 -3.747407e+00  4.250260e-01
2025-07-22T00:11:18.000  2.544278e+03  2.215773e+03  5.443550e+03  1.684328e+00 -3.733076e+00  4.160957e-01
2025-07-22T00:11:19.000  2.545971e+03  2.212047e+03  5.443962e+03  1.700567e+00 -3.717969e+00  4.071194e-01
2025-07-22T00:11:20.000  2.547679e+03  2.208337e+03  5.444364e+03  1.717446e+00 -3.702072e+00  3.980959e-01
2025-07-22T00:11:21.000  2.549405e+03  2.204643e+03  5.444758e+03  1.734953e+00 -3.685372e+00  3.890246e-01
2025-07-22T00:11:22.000  2.551149e+03  2.200966e+03  5.445142e+03  1.753069e+00 -3.667860e+00  3.799049e-01
2025-07-22T00:11:23.000  2.552912e+03  2.197307e+03  5.445518e+03  1.773216e+00 -3.648132e+00  3.706582e-01
2025-07-22T00:11:24.000  2.554696e+03  2.193670e+03  5.445884e+03  1.798233e+00 -3.623334e+00  3.611220e-01
2025-07-22T00:11:25.000  2.556508e+03  2.190060e+03  5.446240e+03  1.826599e+00 -3.594762e+00  3.513634e-01
2025-07-22T00:11:26.000  2.558349e+03  2.186480e+03  5.446586e+03  1.855344e+00 -3.565189e+00  3.415358e-01
2025-07-22T00:11:27.000  2.560219e+03  2.182930e+03  5.446923e+03  1.884379e+00 -3.534661e+00  3.316432e-01
2025-07-22T00:11:28.000  2.562118e+03  2.179411e+03  5.447250e+03  1.913610e+00 -3.503236e+00  3.216905e-01
2025-07-22T00:11:29.000  2.564046e+03  2.175924e+03  5.447566e+03  1.942942e+00 -3.470975e+00  3.116835e-01
2025-07-22T00:11:30.000  2.566004e+03  2.172469e+03  5.447873e+03  1.972279e+00 -3.437950e+00  3.016286e-01
2025-07-22T00:11:31.000  2.567990e+03  2.169048e+03  5.448170e+03  2.001524e+00 -3.404239e+00  2.915330e-01
2025-07-22T00:11:32.000  2.570007e+03  2.165660e+03  5.448456e+03  2.030581e+00 -3.369925e+00  2.814044e-01
2025-07-22T00:11:33.000  2.572052e+03  2.162308e+03  5.448732e+03  2.059358e+00 -3.335098e+00  2.712511e-01
2025-07-22T00:11:34.000  2.574125e+03  2.158990e+03  5.448999e+03  2.087764e+00 -3.299850e+00  2.610817e-01
2025-07-22T00:11:35.000  2.576227e+03  2.155708e+03  5.449255e+03  2.115715e+00 -3.264278e+00  2.509050e-01
2025-07-22T00:11:36.000  2.578357e+03  2.152462e+03  5.449500e+03  2.143131e+00 -3.228480e+00  2.407299e-01
2025-07-22T00:11:37.000  2.580513e+03  2.149251e+03  5.449736e+03  2.169939e+00 -3.192555e+00  2.305653e-01
2025-07-22T00:11:38.000  2.582697e+03  2.146077e+03  5.449962e+03  2.196072e+00 -3.156603e+00  2.204196e-01
2025-07-22T00:11:39.000  2.584906e+03  2.142938e+03  5.450177e+03  2.221473e+00 -3.120721e+00  2.103012e-01
2025-07-22T00:11:40.000  2.587140e+03  2.139835e+03  5.450382e+03  2.246089e+00 -3.085004e+00  2.002180e-01
2025-07-22T00:11:41.000  2.589398e+03  2.136768e+03  5.450577e+03  2.269877e+00 -3.049545e+00  1.901771e-01
2025-07-22T00:11:42.000  2.591679e+03  2.133736e+03  5.450762e+03  2.292803e+00 -3.014430e+00  1.801851e-01
2025-07-22T00:11:43.000  2.593983e+03  2.130739e+03  5.450938e+03  2.314838e+00 -2.979742e+00  1.702481e-01
